start=new Date('2022-07-05T00:00:00.000Z').valueOf();
sats=[{"EPOCH":"2022-07-04T19:59:03.706656","REV_AT_EPOCH":"10648","MEAN_ANOMALY":"277.5727","SEMIMAJOR_AXIS":"6925.389","OBJECT_NAME":"STARLINK-1543","COUNTRY_CODE":"US","FILE":"3507746","MEAN_MOTION_DOT":"-0.00001332","ELEMENT_SET_NO":"999","TLE_LINE2":"2 46053  53.0569  29.4288 0001397  82.5420 277.5727 15.06386919106486","CLASSIFICATION_TYPE":"U","PERIOD":"95.593","BSTAR":"-0.00007059300000","LAUNCH_DATE":"2020-08-07","MEAN_ELEMENT_THEORY":"SGP4","OBJECT_TYPE":"PAYLOAD","CENTER_NAME":"EARTH","MEAN_MOTION_DDOT":"0.0000000000000","GP_ID":"207415129","EPHEMERIS_TYPE":"0","ECCENTRICITY":"0.00013970","SITE":"AFETR","REF_FRAME":"TEME","TLE_LINE1":"1 46053U 20055AC  22185.83268179 -.00001332  00000-0 -70593-4 0  9991","OBJECT_ID":"2020-055AC","MEAN_MOTION":"15.06386919","NORAD_CAT_ID":"46053","DECAY_DATE":null,"RCS_SIZE":"LARGE","ARG_OF_PERICENTER":"82.5420","APOAPSIS":"548.221","INCLINATION":"53.0569","TIME_SYSTEM":"UTC","PERIAPSIS":"546.286","RA_OF_ASC_NODE":"29.4288"},{"CENTER_NAME":"EARTH","OBJECT_TYPE":"PAYLOAD","MEAN_ELEMENT_THEORY":"SGP4","EPHEMERIS_TYPE":"0","GP_ID":"207413889","MEAN_MOTION_DDOT":"0.0000000000000","SEMIMAJOR_AXIS":"6925.350","OBJECT_NAME":"STARLINK-1548","REV_AT_EPOCH":"10648","MEAN_ANOMALY":"270.7175","EPOCH":"2022-07-04T20:09:39.956256","LAUNCH_DATE":"2020-08-07","ELEMENT_SET_NO":"999","PERIOD":"95.592","TLE_LINE2":"2 46054  53.0568  29.4003 0001406  89.3975 270.7175 15.06399571106482","CLASSIFICATION_TYPE":"U","BSTAR":"-0.00006234200000","COUNTRY_CODE":"US","MEAN_MOTION_DOT":"-0.00001210","FILE":"3507746","DECAY_DATE":null,"NORAD_CAT_ID":"46054","RA_OF_ASC_NODE":"29.4003","PERIAPSIS":"546.241","TIME_SYSTEM":"UTC","INCLINATION":"53.0568","RCS_SIZE":"LARGE","ARG_OF_PERICENTER":"89.3975","APOAPSIS":"548.189","ECCENTRICITY":"0.00014060","MEAN_MOTION":"15.06399571","TLE_LINE1":"1 46054U 20055AD  22185.84004579 -.00001210  00000-0 -62342-4 0  9993","OBJECT_ID":"2020-055AD","REF_FRAME":"TEME","SITE":"AFETR"},{"TIME_SYSTEM":"UTC","RA_OF_ASC_NODE":"29.4639","PERIAPSIS":"546.201","RCS_SIZE":"LARGE","ARG_OF_PERICENTER":"84.8677","APOAPSIS":"548.252","INCLINATION":"53.0546","DECAY_DATE":null,"NORAD_CAT_ID":"46055","OBJECT_ID":"2020-055AE","TLE_LINE1":"1 46055U 20055AE  22185.82530831 -.00000730  00000-0 -30089-4 0  9996","MEAN_MOTION":"15.06395813","SITE":"AFETR","REF_FRAME":"TEME","ECCENTRICITY":"0.00014810","GP_ID":"207414638","EPHEMERIS_TYPE":"0","MEAN_MOTION_DDOT":"0.0000000000000","CENTER_NAME":"EARTH","MEAN_ELEMENT_THEORY":"SGP4","OBJECT_TYPE":"PAYLOAD","TLE_LINE2":"2 46055  53.0546  29.4639 0001481  84.8677 275.2481 15.06395813106481","CLASSIFICATION_TYPE":"U","PERIOD":"95.592","BSTAR":"-0.00003008900000","ELEMENT_SET_NO":"999","LAUNCH_DATE":"2020-08-07","FILE":"3507746","MEAN_MOTION_DOT":"-0.00000730","COUNTRY_CODE":"US","MEAN_ANOMALY":"275.2481","REV_AT_EPOCH":"10648","OBJECT_NAME":"STARLINK-1554","SEMIMAJOR_AXIS":"6925.361","EPOCH":"2022-07-04T19:48:26.637984"},{"EPOCH":"2022-07-04T20:18:55.455552","OBJECT_NAME":"STARLINK-1561","SEMIMAJOR_AXIS":"6925.370","MEAN_ANOMALY":"295.5268","REV_AT_EPOCH":"10649","MEAN_MOTION_DOT":"-0.00001544","FILE":"3507746","COUNTRY_CODE":"US","LAUNCH_DATE":"2020-08-07","CLASSIFICATION_TYPE":"U","TLE_LINE2":"2 46056  53.0561  29.3562 0001749  64.5902 295.5268 15.06393129106493","PERIOD":"95.593","BSTAR":"-0.00008480500000","ELEMENT_SET_NO":"999","OBJECT_TYPE":"PAYLOAD","MEAN_ELEMENT_THEORY":"SGP4","CENTER_NAME":"EARTH","MEAN_MOTION_DDOT":"0.0000000000000","EPHEMERIS_TYPE":"0","GP_ID":"207415387","ECCENTRICITY":"0.00017490","REF_FRAME":"TEME","SITE":"AFETR","MEAN_MOTION":"15.06393129","OBJECT_ID":"2020-055AF","TLE_LINE1":"1 46056U 20055AF  22185.84647518 -.00001544  00000-0 -84805-4 0  9999","NORAD_CAT_ID":"46056","DECAY_DATE":null,"INCLINATION":"53.0561","ARG_OF_PERICENTER":"64.5902","RCS_SIZE":"LARGE","APOAPSIS":"548.446","RA_OF_ASC_NODE":"29.3562","PERIAPSIS":"546.023","TIME_SYSTEM":"UTC"},{"LAUNCH_DATE":"2020-08-07","TLE_LINE2":"2 46058  53.0562  29.0063 0001518  89.0058 271.1105 15.06393981106493","BSTAR":"-0.00017595000000","PERIOD":"95.593","CLASSIFICATION_TYPE":"U","ELEMENT_SET_NO":"999","MEAN_MOTION_DOT":"-0.00002901","FILE":"3507746","COUNTRY_CODE":"US","OBJECT_NAME":"STARLINK-1564","SEMIMAJOR_AXIS":"6925.367","MEAN_ANOMALY":"271.1105","REV_AT_EPOCH":"10649","EPOCH":"2022-07-04T22:11:45.745728","EPHEMERIS_TYPE":"0","GP_ID":"207415629","MEAN_MOTION_DDOT":"0.0000000000000","CENTER_NAME":"EARTH","OBJECT_TYPE":"PAYLOAD","MEAN_ELEMENT_THEORY":"SGP4","MEAN_MOTION":"15.06393981","TLE_LINE1":"1 46058U 20055AH  22185.92483502 -.00002901  00000-0 -17595-3 0  9990","OBJECT_ID":"2020-055AH","REF_FRAME":"TEME","SITE":"AFETR","ECCENTRICITY":"0.00015180","PERIAPSIS":"546.181","RA_OF_ASC_NODE":"29.0063","TIME_SYSTEM":"UTC","INCLINATION":"53.0562","APOAPSIS":"548.283","RCS_SIZE":"LARGE","ARG_OF_PERICENTER":"89.0058","DECAY_DATE":null,"NORAD_CAT_ID":"46058"},{"EPHEMERIS_TYPE":"0","GP_ID":"207414389","MEAN_MOTION_DDOT":"0.0000000000000","CENTER_NAME":"EARTH","OBJECT_TYPE":"PAYLOAD","MEAN_ELEMENT_THEORY":"SGP4","LAUNCH_DATE":"2020-08-07","ELEMENT_SET_NO":"999","PERIOD":"95.592","TLE_LINE2":"2 46059  53.0572  29.2847 0001497  84.6322 275.4838 15.06396957106449","CLASSIFICATION_TYPE":"U","BSTAR":"-0.00015159000000","COUNTRY_CODE":"US","MEAN_MOTION_DOT":"-0.00002538","FILE":"3507746","SEMIMAJOR_AXIS":"6925.358","OBJECT_NAME":"STARLINK-1570","REV_AT_EPOCH":"10644","MEAN_ANOMALY":"275.4838","EPOCH":"2022-07-04T20:46:50.063808","RA_OF_ASC_NODE":"29.2847","PERIAPSIS":"546.186","TIME_SYSTEM":"UTC","INCLINATION":"53.0572","ARG_OF_PERICENTER":"84.6322","RCS_SIZE":"LARGE","APOAPSIS":"548.260","DECAY_DATE":null,"NORAD_CAT_ID":"46059","MEAN_MOTION":"15.06396957","OBJECT_ID":"2020-055AJ","TLE_LINE1":"1 46059U 20055AJ  22185.86585722 -.00002538  00000-0 -15159-3 0  9991","REF_FRAME":"TEME","SITE":"AFETR","ECCENTRICITY":"0.00014970"},{"TIME_SYSTEM":"UTC","RA_OF_ASC_NODE":"29.2991","PERIAPSIS":"546.217","RCS_SIZE":"LARGE","ARG_OF_PERICENTER":"76.8675","APOAPSIS":"548.329","INCLINATION":"53.0563","DECAY_DATE":null,"NORAD_CAT_ID":"46060","TLE_LINE1":"1 46060U 20055AK  22185.86217780 -.00001279  00000-0 -67011-4 0  9995","OBJECT_ID":"2020-055AK","MEAN_MOTION":"15.06380512","SITE":"AFETR","REF_FRAME":"TEME","ECCENTRICITY":"0.00015250","GP_ID":"207414139","EPHEMERIS_TYPE":"0","MEAN_MOTION_DDOT":"0.0000000000000","CENTER_NAME":"EARTH","MEAN_ELEMENT_THEORY":"SGP4","OBJECT_TYPE":"PAYLOAD","ELEMENT_SET_NO":"999","TLE_LINE2":"2 46060  53.0563  29.2991 0001525  76.8675 283.2485 15.06380512106453","PERIOD":"95.593","CLASSIFICATION_TYPE":"U","BSTAR":"-0.00006701100000","LAUNCH_DATE":"2020-08-07","COUNTRY_CODE":"US","FILE":"3507746","MEAN_MOTION_DOT":"-0.00001279","REV_AT_EPOCH":"10645","MEAN_ANOMALY":"283.2485","SEMIMAJOR_AXIS":"6925.408","OBJECT_NAME":"STARLINK-1572","EPOCH":"2022-07-04T20:41:32.161920"},{"OBJECT_NAME":"STARLINK-1573","SEMIMAJOR_AXIS":"6925.384","MEAN_ANOMALY":"292.0661","REV_AT_EPOCH":"10649","EPOCH":"2022-07-04T22:06:27.103392","LAUNCH_DATE":"2020-08-07","CLASSIFICATION_TYPE":"U","TLE_LINE2":"2 46061  53.0560  29.0380 0001565  68.0494 292.0661 15.06388570106497","PERIOD":"95.593","BSTAR":"-0.00015396000000","ELEMENT_SET_NO":"999","MEAN_MOTION_DOT":"-0.00002573","FILE":"3507746","COUNTRY_CODE":"US","CENTER_NAME":"EARTH","OBJECT_TYPE":"PAYLOAD","MEAN_ELEMENT_THEORY":"SGP4","EPHEMERIS_TYPE":"0","GP_ID":"207414888","MEAN_MOTION_DDOT":"0.0000000000000","ECCENTRICITY":"0.00015650","MEAN_MOTION":"15.06388570","OBJECT_ID":"2020-055AL","TLE_LINE1":"1 46061U 20055AL  22185.92114703 -.00002573  00000-0 -15396-3 0  9990","REF_FRAME":"TEME","SITE":"AFETR","DECAY_DATE":null,"NORAD_CAT_ID":"46061","RA_OF_ASC_NODE":"29.0380","PERIAPSIS":"546.165","TIME_SYSTEM":"UTC","INCLINATION":"53.0560","RCS_SIZE":"LARGE","ARG_OF_PERICENTER":"68.0494","APOAPSIS":"548.332"},{"MEAN_MOTION_DDOT":"0.0000000000000","GP_ID":"207415130","EPHEMERIS_TYPE":"0","MEAN_ELEMENT_THEORY":"SGP4","OBJECT_TYPE":"PAYLOAD","CENTER_NAME":"EARTH","MEAN_MOTION_DOT":"-0.00001488","FILE":"3507746","COUNTRY_CODE":"US","TLE_LINE2":"2 46062  53.0546  29.1752 0001703  64.8728 295.2437 15.06379521106452","CLASSIFICATION_TYPE":"U","PERIOD":"95.593","BSTAR":"-0.00008104900000","ELEMENT_SET_NO":"999","LAUNCH_DATE":"2020-08-07","EPOCH":"2022-07-04T21:18:41.466816","MEAN_ANOMALY":"295.2437","REV_AT_EPOCH":"10645","OBJECT_NAME":"STARLINK-1574","SEMIMAJOR_AXIS":"6925.411","APOAPSIS":"548.456","RCS_SIZE":"LARGE","ARG_OF_PERICENTER":"64.8728","INCLINATION":"53.0546","TIME_SYSTEM":"UTC","PERIAPSIS":"546.097","RA_OF_ASC_NODE":"29.1752","NORAD_CAT_ID":"46062","DECAY_DATE":null,"SITE":"AFETR","REF_FRAME":"TEME","OBJECT_ID":"2020-055AM","TLE_LINE1":"1 46062U 20055AM  22185.88797994 -.00001488  00000-0 -81049-4 0  9998","MEAN_MOTION":"15.06379521","ECCENTRICITY":"0.00017030"},{"LAUNCH_DATE":"2020-08-07","ELEMENT_SET_NO":"999","PERIOD":"95.593","TLE_LINE2":"2 46063  53.0568  29.2090 0001545  93.5822 266.5344 15.06386412106489","CLASSIFICATION_TYPE":"U","BSTAR":"-0.00014658000000","COUNTRY_CODE":"US","FILE":"3507746","MEAN_MOTION_DOT":"-0.00002463","SEMIMAJOR_AXIS":"6925.390","OBJECT_NAME":"STARLINK-1577","REV_AT_EPOCH":"10648","MEAN_ANOMALY":"266.5344","EPOCH":"2022-07-04T21:13:22.755360","EPHEMERIS_TYPE":"0","GP_ID":"207413890","MEAN_MOTION_DDOT":"0.0000000000000","CENTER_NAME":"EARTH","OBJECT_TYPE":"PAYLOAD","MEAN_ELEMENT_THEORY":"SGP4","MEAN_MOTION":"15.06386412","TLE_LINE1":"1 46063U 20055AN  22185.88429115 -.00002463  00000-0 -14658-3 0  9991","OBJECT_ID":"2020-055AN","REF_FRAME":"TEME","SITE":"AFETR","ECCENTRICITY":"0.00015450","RA_OF_ASC_NODE":"29.2090","PERIAPSIS":"546.185","TIME_SYSTEM":"UTC","INCLINATION":"53.0568","APOAPSIS":"548.325","RCS_SIZE":"LARGE","ARG_OF_PERICENTER":"93.5822","DECAY_DATE":null,"NORAD_CAT_ID":"46063"}];
